CCSDS_OMM_VERS = 2.0
CREATION_DATE  = 
ORIGINATOR     = 

OBJECT_NAME    = SL-4 R/B
OBJECT_ID      = 2014-021B
CENTER_NAME    = EARTH
REF_FRAME      = TEME
TIME_SYSTEM    = UTC
MEAN_ELEMENT_THEORY = SGP/SGP4

EPOCH          = 2026-02-28T06:40:46.792704
MEAN_MOTION    = 15.38813940
ECCENTRICITY   = .0098319
INCLINATION    = 51.6075
RA_OF_ASC_NODE = 23.1783
ARG_OF_PERICENTER = 68.6580
MEAN_ANOMALY   = 292.4863

EPHEMERIS_TYPE = 0
CLASSIFICATION_TYPE = U
NORAD_CAT_ID   = 39679
ELEMENT_SET_NO = 999
REV_AT_EPOCH   = 65482
BSTAR          = .34662E-3
MEAN_MOTION_DOT = .15566E-3
MEAN_MOTION_DDOT = 0

CCSDS_OMM_VERS = 2.0
CREATION_DATE  = 
ORIGINATOR     = 

OBJECT_NAME    = ALOS-2
OBJECT_ID      = 2014-029A
CENTER_NAME    = EARTH
REF_FRAME      = TEME
TIME_SYSTEM    = UTC
MEAN_ELEMENT_THEORY = SGP/SGP4

EPOCH          = 2026-02-28T12:29:58.608672
MEAN_MOTION    = 14.79462097
ECCENTRICITY   = .0001511
INCLINATION    = 97.9197
RA_OF_ASC_NODE = 158.2507
ARG_OF_PERICENTER = 96.5796
MEAN_ANOMALY   = 263.5587

EPHEMERIS_TYPE = 0
CLASSIFICATION_TYPE = U
NORAD_CAT_ID   = 39766
ELEMENT_SET_NO = 999
REV_AT_EPOCH   = 63551
BSTAR          = .32223E-3
MEAN_MOTION_DOT = .2355E-4
MEAN_MOTION_DDOT = 0

CCSDS_OMM_VERS = 2.0
CREATION_DATE  = 
ORIGINATOR     = 

OBJECT_NAME    = YAOGAN-29
OBJECT_ID      = 2015-069A
CENTER_NAME    = EARTH
REF_FRAME      = TEME
TIME_SYSTEM    = UTC
MEAN_ELEMENT_THEORY = SGP/SGP4

EPOCH          = 2026-02-28T13:13:05.625120
MEAN_MOTION    = 14.82982620
ECCENTRICITY   = .0002402
INCLINATION    = 98.0161
RA_OF_ASC_NODE = 87.9558
ARG_OF_PERICENTER = 50.9471
MEAN_ANOMALY   = 309.1955

EPHEMERIS_TYPE = 0
CLASSIFICATION_TYPE = U
NORAD_CAT_ID   = 41038
ELEMENT_SET_NO = 999
REV_AT_EPOCH   = 55452
BSTAR          = .65008E-4
MEAN_MOTION_DOT = .474E-5
MEAN_MOTION_DDOT = 0

CCSDS_OMM_VERS = 2.0
CREATION_DATE  = 
ORIGINATOR     = 

OBJECT_NAME    = ASTRO-H (HITOMI)
OBJECT_ID      = 2016-012A
CENTER_NAME    = EARTH
REF_FRAME      = TEME
TIME_SYSTEM    = UTC
MEAN_ELEMENT_THEORY = SGP/SGP4

EPOCH          = 2026-02-28T07:31:15.702816
MEAN_MOTION    = 15.09924005
ECCENTRICITY   = .001001
INCLINATION    = 31.0000
RA_OF_ASC_NODE = 57.0505
ARG_OF_PERICENTER = 238.0552
MEAN_ANOMALY   = 121.9112

EPHEMERIS_TYPE = 0
CLASSIFICATION_TYPE = U
NORAD_CAT_ID   = 41337
ELEMENT_SET_NO = 999
REV_AT_EPOCH   = 55081
BSTAR          = .21591E-3
MEAN_MOTION_DOT = .3686E-4
MEAN_MOTION_DDOT = 0

CCSDS_OMM_VERS = 2.0
CREATION_DATE  = 
ORIGINATOR     = 

OBJECT_NAME    = HXMT (HUIYAN)
OBJECT_ID      = 2017-034A
CENTER_NAME    = EARTH
REF_FRAME      = TEME
TIME_SYSTEM    = UTC
MEAN_ELEMENT_THEORY = SGP/SGP4

EPOCH          = 2026-02-28T11:54:34.163136
MEAN_MOTION    = 15.17323837
ECCENTRICITY   = .0031815
INCLINATION    = 43.0148
RA_OF_ASC_NODE = 67.7790
ARG_OF_PERICENTER = 179.0095
MEAN_ANOMALY   = 181.0821

EPHEMERIS_TYPE = 0
CLASSIFICATION_TYPE = U
NORAD_CAT_ID   = 42758
ELEMENT_SET_NO = 999
REV_AT_EPOCH   = 48114
BSTAR          = .2923E-3
MEAN_MOTION_DOT = .5774E-4
MEAN_MOTION_DDOT = 0

CCSDS_OMM_VERS = 2.0
CREATION_DATE  = 
ORIGINATOR     = 

OBJECT_NAME    = SAOCOM 1A
OBJECT_ID      = 2018-076A
CENTER_NAME    = EARTH
REF_FRAME      = TEME
TIME_SYSTEM    = UTC
MEAN_ELEMENT_THEORY = SGP/SGP4

EPOCH          = 2026-02-28T12:16:40.412640
MEAN_MOTION    = 14.82156018
ECCENTRICITY   = .0001291
INCLINATION    = 97.8890
RA_OF_ASC_NODE = 247.8134
ARG_OF_PERICENTER = 81.9379
MEAN_ANOMALY   = 278.1981

EPHEMERIS_TYPE = 0
CLASSIFICATION_TYPE = U
NORAD_CAT_ID   = 43641
ELEMENT_SET_NO = 999
REV_AT_EPOCH   = 40000
BSTAR          = .13929E-4
MEAN_MOTION_DOT = .59E-6
MEAN_MOTION_DDOT = 0

CCSDS_OMM_VERS = 2.0
CREATION_DATE  = 
ORIGINATOR     = 

OBJECT_NAME    = H-2A R/B
OBJECT_ID      = 2018-084L
CENTER_NAME    = EARTH
REF_FRAME      = TEME
TIME_SYSTEM    = UTC
MEAN_ELEMENT_THEORY = SGP/SGP4

EPOCH          = 2026-02-28T10:45:12.091968
MEAN_MOTION    = 15.40883319
ECCENTRICITY   = .0026057
INCLINATION    = 98.8747
RA_OF_ASC_NODE = 274.8639
ARG_OF_PERICENTER = 56.4292
MEAN_ANOMALY   = 303.9432

EPHEMERIS_TYPE = 0
CLASSIFICATION_TYPE = U
NORAD_CAT_ID   = 43682
ELEMENT_SET_NO = 999
REV_AT_EPOCH   = 40435
BSTAR          = .47971E-3
MEAN_MOTION_DOT = .19858E-3
MEAN_MOTION_DDOT = 0

CCSDS_OMM_VERS = 2.0
CREATION_DATE  = 
ORIGINATOR     = 

OBJECT_NAME    = SAOCOM 1B
OBJECT_ID      = 2020-059A
CENTER_NAME    = EARTH
REF_FRAME      = TEME
TIME_SYSTEM    = UTC
MEAN_ELEMENT_THEORY = SGP/SGP4

EPOCH          = 2026-02-28T11:24:25.970976
MEAN_MOTION    = 14.82161064
ECCENTRICITY   = .0001458
INCLINATION    = 97.8887
RA_OF_ASC_NODE = 246.8752
ARG_OF_PERICENTER = 85.4211
MEAN_ANOMALY   = 274.7169

EPHEMERIS_TYPE = 0
CLASSIFICATION_TYPE = U
NORAD_CAT_ID   = 46265
ELEMENT_SET_NO = 999
REV_AT_EPOCH   = 29738
BSTAR          = .96632E-4
MEAN_MOTION_DOT = .717E-5
MEAN_MOTION_DDOT = 0

CCSDS_OMM_VERS = 2.0
CREATION_DATE  = 
ORIGINATOR     = 

OBJECT_NAME    = CSS (TIANHE)
OBJECT_ID      = 2021-035A
CENTER_NAME    = EARTH
REF_FRAME      = TEME
TIME_SYSTEM    = UTC
MEAN_ELEMENT_THEORY = SGP/SGP4

EPOCH          = 2026-02-28T05:50:22.962912
MEAN_MOTION    = 15.60219288
ECCENTRICITY   = .0006303
INCLINATION    = 41.4655
RA_OF_ASC_NODE = 265.6207
ARG_OF_PERICENTER = 213.2010
MEAN_ANOMALY   = 146.8433

EPHEMERIS_TYPE = 0
CLASSIFICATION_TYPE = U
NORAD_CAT_ID   = 48274
ELEMENT_SET_NO = 999
REV_AT_EPOCH   = 27613
BSTAR          = .27649E-3
MEAN_MOTION_DOT = .22938E-3
MEAN_MOTION_DDOT = 0

CCSDS_OMM_VERS = 2.0
CREATION_DATE  = 
ORIGINATOR     = 

OBJECT_NAME    = COSMOS 2550
OBJECT_ID      = 2021-056A
CENTER_NAME    = EARTH
REF_FRAME      = TEME
TIME_SYSTEM    = UTC
MEAN_ELEMENT_THEORY = SGP/SGP4

EPOCH          = 2026-02-28T12:26:54.428064
MEAN_MOTION    = 15.33828983
ECCENTRICITY   = .000834
INCLINATION    = 67.1416
RA_OF_ASC_NODE = 68.6724
ARG_OF_PERICENTER = 269.1227
MEAN_ANOMALY   = 90.8972

EPHEMERIS_TYPE = 0
CLASSIFICATION_TYPE = U
NORAD_CAT_ID   = 48865
ELEMENT_SET_NO = 999
REV_AT_EPOCH   = 26205
BSTAR          = .4599E-6
MEAN_MOTION_DOT = -.177E-5
MEAN_MOTION_DDOT = 0

CCSDS_OMM_VERS = 2.0
CREATION_DATE  = 
ORIGINATOR     = 

OBJECT_NAME    = CZ-2C R/B
OBJECT_ID      = 2022-058K
CENTER_NAME    = EARTH
REF_FRAME      = TEME
TIME_SYSTEM    = UTC
MEAN_ELEMENT_THEORY = SGP/SGP4

EPOCH          = 2026-02-28T06:02:49.338816
MEAN_MOTION    = 15.53474495
ECCENTRICITY   = .004215
INCLINATION    = 50.1900
RA_OF_ASC_NODE = 6.8084
ARG_OF_PERICENTER = 160.5919
MEAN_ANOMALY   = 199.6667

EPHEMERIS_TYPE = 0
CLASSIFICATION_TYPE = U
NORAD_CAT_ID   = 52794
ELEMENT_SET_NO = 999
REV_AT_EPOCH   = 20866
BSTAR          = .43179E-3
MEAN_MOTION_DOT = .28643E-3
MEAN_MOTION_DDOT = 0

CCSDS_OMM_VERS = 2.0
CREATION_DATE  = 
ORIGINATOR     = 

OBJECT_NAME    = CZ-2C R/B
OBJECT_ID      = 2022-132E
CENTER_NAME    = EARTH
REF_FRAME      = TEME
TIME_SYSTEM    = UTC
MEAN_ELEMENT_THEORY = SGP/SGP4

EPOCH          = 2026-02-28T11:07:08.435712
MEAN_MOTION    = 15.60930475
ECCENTRICITY   = .0020625
INCLINATION    = 97.2962
RA_OF_ASC_NODE = 62.5069
ARG_OF_PERICENTER = 120.6575
MEAN_ANOMALY   = 239.6719

EPHEMERIS_TYPE = 0
CLASSIFICATION_TYPE = U
NORAD_CAT_ID   = 54039
ELEMENT_SET_NO = 999
REV_AT_EPOCH   = 18893
BSTAR          = .46568E-3
MEAN_MOTION_DOT = .39386E-3
MEAN_MOTION_DDOT = 0

