SL-4 R/B                
1 39679U 14021B   26059.27831936  .00015566  00000+0  34662-3 0  9999
2 39679  51.6075  23.1783 0098319  68.6580 292.4863 15.38813940654828
ALOS-2                  
1 39766U 14029A   26059.52081723  .00002355  00000+0  32223-3 0  9996
2 39766  97.9197 158.2507 0001511  96.5796 263.5587 14.79462097635518
YAOGAN-29               
1 41038U 15069A   26059.55075955  .00000474  00000+0  65008-4 0  9997
2 41038  98.0161  87.9558 0002402  50.9471 309.1955 14.82982620554524
ASTRO-H (HITOMI)        
1 41337U 16012A   26059.31337619  .00003686  00000+0  21591-3 0  9996
2 41337  31.0000  57.0505 0010010 238.0552 121.9112 15.09924005550814
HXMT (HUIYAN)           
1 42758U 17034A   26059.49622874  .00005774  00000+0  29230-3 0  9996
2 42758  43.0148  67.7790 0031815 179.0095 181.0821 15.17323837481142
SAOCOM 1A               
1 43641U 18076A   26059.51157885  .00000059  00000+0  13929-4 0  9993
2 43641  97.8890 247.8134 0001291  81.9379 278.1981 14.82156018400006
H-2A R/B                
1 43682U 18084L   26059.44805662  .00019858  00000+0  47971-3 0  9992
2 43682  98.8747 274.8639 0026057  56.4292 303.9432 15.40883319404357
SAOCOM 1B               
1 46265U 20059A   26059.47530059  .00000717  00000+0  96632-4 0  9998
2 46265  97.8887 246.8752 0001458  85.4211 274.7169 14.82161064297383
CSS (TIANHE)            
1 48274U 21035A   26059.24332133  .00022938  00000+0  27649-3 0  9993
2 48274  41.4655 265.6207 0006303 213.2010 146.8433 15.60219288276131
COSMOS 2550             
1 48865U 21056A   26059.51868551 -.00000177  00000+0  45990-6 0  9994
2 48865  67.1416  68.6724 0008340 269.1227  90.8972 15.33828983262055
CZ-2C R/B               
1 52794U 22058K   26059.25195994  .00028643  00000+0  43179-3 0  9999
2 52794  50.1900   6.8084 0042150 160.5919 199.6667 15.53474495208666
CZ-2C R/B               
1 54039U 22132E   26059.46329208  .00039386  00000+0  46568-3 0  9997
2 54039  97.2962  62.5069 0020625 120.6575 239.6719 15.60930475188933
